{
  "type": "FeatureCollection",
  "features": [
    {
      "type": "Feature",
      "properties": {
        "norad_id": 67147,
        "name": "KUIPER-00221",
        "group": "last-30-days",
        "lat": 40.34120677155517,
        "lon": -168.2288598268975,
        "alt_km": 449.6969127383518,
        "timestamp": "2025-12-27T13:34:48.010969+00:00",
        "meta_object_name": "KUIPER-00221",
        "meta_object_id": "2025-301Q",
        "meta_epoch": "2025-12-27T06:47:36.673440",
        "meta_mean_motion": 15.35782669,
        "meta_eccentricity": 0.00050686,
        "meta_inclination": 51.8725,
        "meta_ra_of_asc_node": 54.9767,
        "meta_arg_of_pericenter": 116.3773,
        "meta_mean_anomaly": 243.7734,
        "meta_ephemeris_type": 0,
        "meta_classification_type": "U",
        "meta_norad_cat_id": 67147,
        "meta_element_set_no": 999,
        "meta_rev_at_epoch": 260,
        "meta_bstar": 0.00063829804,
        "meta_mean_motion_dot": 0.0002225,
        "meta_mean_motion_ddot": 0,
        "tle_line1": "1 67147U 25301Q   25361.28306335  .00022250  00000+0  63830-3 0  9996",
        "tle_line2": "2 67147  51.8725  54.9767 0005068 116.3773 243.7734 15.35782669  2600"
      },
      "geometry": {
        "type": "Point",
        "coordinates": [
          -168.2288598268975,
          40.34120677155517
        ]
      }
    },
    {
      "type": "Feature",
      "properties": {
        "norad_id": 67148,
        "name": "KUIPER-00232",
        "group": "last-30-days",
        "lat": 11.475335563032518,
        "lon": -135.6497113559224,
        "alt_km": 455.2208385123058,
        "timestamp": "2025-12-27T13:34:48.010979+00:00",
        "meta_object_name": "KUIPER-00232",
        "meta_object_id": "2025-301R",
        "meta_epoch": "2025-12-27T06:37:16.302432",
        "meta_mean_motion": 15.36747889,
        "meta_eccentricity": 0.00016558,
        "meta_inclination": 51.8745,
        "meta_ra_of_asc_node": 54.9256,
        "meta_arg_of_pericenter": 55.0515,
        "meta_mean_anomaly": 305.0627,
        "meta_ephemeris_type": 0,
        "meta_classification_type": "U",
        "meta_norad_cat_id": 67148,
        "meta_element_set_no": 999,
        "meta_rev_at_epoch": 260,
        "meta_bstar": 0.00051752933,
        "meta_mean_motion_dot": 0.00018528,
        "meta_mean_motion_ddot": 0,
        "tle_line1": "1 67148U 25301R   25361.27588313  .00018528  00000+0  51753-3 0  9998",
        "tle_line2": "2 67148  51.8745  54.9256 0001655  55.0515 305.0627 15.36747889  2606"
      },
      "geometry": {
        "type": "Point",
        "coordinates": [
          -135.6497113559224,
          11.475335563032518
        ]
      }
    },
    {
      "type": "Feature",
      "properties": {
        "norad_id": 67149,
        "name": "KUIPER-00241",
        "group": "last-30-days",
        "lat": 25.98019878090886,
        "lon": -148.93854709335258,
        "alt_km": 452.5401804987332,
        "timestamp": "2025-12-27T13:34:48.010989+00:00",
        "meta_object_name": "KUIPER-00241",
        "meta_object_id": "2025-301S",
        "meta_epoch": "2025-12-27T06:42:09.023040",
        "meta_mean_motion": 15.36307948,
        "meta_eccentricity": 0.00029158,
        "meta_inclination": 51.8747,
        "meta_ra_of_asc_node": 54.9473,
        "meta_arg_of_pericenter": 96.2518,
        "meta_mean_anomaly": 263.8801,
        "meta_ephemeris_type": 0,
        "meta_classification_type": "U",
        "meta_norad_cat_id": 67149,
        "meta_element_set_no": 999,
        "meta_rev_at_epoch": 293,
        "meta_bstar": 0.00093046989,
        "meta_mean_motion_dot": 0.00033211,
        "meta_mean_motion_ddot": 0,
        "tle_line1": "1 67149U 25301S   25361.27927110  .00033211  00000+0  93047-3 0  9999",
        "tle_line2": "2 67149  51.8747  54.9473 0002915  96.2518 263.8801 15.36307948  2939"
      },
      "geometry": {
        "type": "Point",
        "coordinates": [
          -148.93854709335258,
          25.98019878090886
        ]
      }
    },
    {
      "type": "Feature",
      "properties": {
        "norad_id": 67150,
        "name": "KUIPER-00245",
        "group": "last-30-days",
        "lat": 42.483327558764074,
        "lon": -172.3768700450876,
        "alt_km": 449.629400265233,
        "timestamp": "2025-12-27T13:34:48.010999+00:00",
        "meta_object_name": "KUIPER-00245",
        "meta_object_id": "2025-301T",
        "meta_epoch": "2025-12-27T06:48:33.874560",
        "meta_mean_motion": 15.35688677,
        "meta_eccentricity": 0.00050741,
        "meta_inclination": 51.8729,
        "meta_ra_of_asc_node": 54.9797,
        "meta_arg_of_pericenter": 124.8823,
        "meta_mean_anomaly": 235.2641,
        "meta_ephemeris_type": 0,
        "meta_classification_type": "U",
        "meta_norad_cat_id": 67150,
        "meta_element_set_no": 999,
        "meta_rev_at_epoch": 260,
        "meta_bstar": 0.00064427242,
        "meta_mean_motion_dot": 0.00022394,
        "meta_mean_motion_ddot": 0,
        "tle_line1": "1 67150U 25301T   25361.28372540  .00022394  00000+0  64427-3 0  9993",
        "tle_line2": "2 67150  51.8729  54.9797 0005074 124.8823 235.2641 15.35688677  2605"
      },
      "geometry": {
        "type": "Point",
        "coordinates": [
          -172.3768700450876,
          42.483327558764074
        ]
      }
    },
    {
      "type": "Feature",
      "properties": {
        "norad_id": 67151,
        "name": "KUIPER-00246",
        "group": "last-30-days",
        "lat": 34.52126764337013,
        "lon": -159.1079001184463,
        "alt_km": 450.8559635271986,
        "timestamp": "2025-12-27T13:34:48.011011+00:00",
        "meta_object_name": "KUIPER-00246",
        "meta_object_id": "2025-301U",
        "meta_epoch": "2025-12-27T06:45:14.520384",
        "meta_mean_motion": 15.35965612,
        "meta_eccentricity": 0.00040166,
        "meta_inclination": 51.8741,
        "meta_ra_of_asc_node": 54.9629,
        "meta_arg_of_pericenter": 117.6356,
        "meta_mean_anomaly": 242.5038,
        "meta_ephemeris_type": 0,
        "meta_classification_type": "U",
        "meta_norad_cat_id": 67151,
        "meta_element_set_no": 999,
        "meta_rev_at_epoch": 262,
        "meta_bstar": 0.00069800914,
        "meta_mean_motion_dot": 0.00024517,
        "meta_mean_motion_ddot": 0,
        "tle_line1": "1 67151U 25301U   25361.28141806  .00024517  00000+0  69801-3 0  9993",
        "tle_line2": "2 67151  51.8741  54.9629 0004016 117.6356 242.5038 15.35965612  2620"
      },
      "geometry": {
        "type": "Point",
        "coordinates": [
          -159.1079001184463,
          34.52126764337013
        ]
      }
    },
    {
      "type": "Feature",
      "properties": {
        "norad_id": 67152,
        "name": "KUIPER-00247",
        "group": "last-30-days",
        "lat": 38.81335944953891,
        "lon": 92.95669835263546,
        "alt_km": 460.469696377334,
        "timestamp": "2025-12-27T13:34:48.011023+00:00",
        "meta_object_name": "KUIPER-00247",
        "meta_object_id": "2025-301V",
        "meta_epoch": "2025-12-27T05:31:58.593792",
        "meta_mean_motion": 15.34049784,
        "meta_eccentricity": 0.00112419,
        "meta_inclination": 51.8632,
        "meta_ra_of_asc_node": 55.372,
        "meta_arg_of_pericenter": 156.7034,
        "meta_mean_anomaly": 203.4463,
        "meta_ephemeris_type": 0,
        "meta_classification_type": "U",
        "meta_norad_cat_id": 67152,
        "meta_element_set_no": 999,
        "meta_rev_at_epoch": 259,
        "meta_bstar": 0.0010043828,
        "meta_mean_motion_dot": 0.00033424,
        "meta_mean_motion_ddot": 0,
        "tle_line1": "1 67152U 25301V   25361.23053928  .00033424  00000+0  10044-2 0  9997",
        "tle_line2": "2 67152  51.8632  55.3720 0011241 156.7034 203.4463 15.34049784  2598"
      },
      "geometry": {
        "type": "Point",
        "coordinates": [
          92.95669835263546,
          38.81335944953891
        ]
      }
    },
    {
      "type": "Feature",
      "properties": {
        "norad_id": 67153,
        "name": "KUIPER-00248",
        "group": "last-30-days",
        "lat": 50.78942773813411,
        "lon": 128.03025811130502,
        "alt_km": 452.2501846977302,
        "timestamp": "2025-12-27T13:34:48.011036+00:00",
        "meta_object_name": "KUIPER-00248",
        "meta_object_id": "2025-301W",
        "meta_epoch": "2025-12-27T05:25:06.007872",
        "meta_mean_motion": 15.34736995,
        "meta_eccentricity": 0.00087653,
        "meta_inclination": 51.8682,
        "meta_ra_of_asc_node": 55.3422,
        "meta_arg_of_pericenter": 145.2747,
        "meta_mean_anomaly": 214.8812,
        "meta_ephemeris_type": 0,
        "meta_classification_type": "U",
        "meta_norad_cat_id": 67153,
        "meta_element_set_no": 999,
        "meta_rev_at_epoch": 276,
        "meta_bstar": 0.0011390304,
        "meta_mean_motion_dot": 0.00038799,
        "meta_mean_motion_ddot": 0,
        "tle_line1": "1 67153U 25301W   25361.22576398  .00038799  00000+0  11390-2 0  9993",
        "tle_line2": "2 67153  51.8682  55.3422 0008765 145.2747 214.8812 15.34736995  2764"
      },
      "geometry": {
        "type": "Point",
        "coordinates": [
          128.03025811130502,
          50.78942773813411
        ]
      }
    }
  ]
}